KUIPER-00095            
1 65134U 25171C   25262.18292192  .00038726  00000+0  10946-2 0  9993
2 65134  51.8739 218.3029 0004056 300.4518  59.6067 15.35955499  7190
KUIPER-00096            
1 65135U 25171D   25262.17634177  .00045251  00000+0  12606-2 0  9992
2 65135  51.8736 218.2573 0003651 273.9008  86.1561 15.36337961  7192
KUIPER-00097            
1 65136U 25171E   25262.18430631  .00027066  00000+0  77046-3 0  9997
2 65136  51.8754 218.3078 0004145 301.6341  58.4240 15.35913728  7187
KUIPER-00098            
1 65137U 25171F   25262.03792690  .00058632  00000+0  16175-2 0  9996
2 65137  51.8736 218.8365 0004581 252.4360 107.6126 15.36523673  6513
KUIPER-00099            
1 65138U 25171G   25262.04036266  .00050733  00000+0  14036-2 0  9996
2 65138  51.8723 218.8559 0004358 263.2702  96.7789 15.36499162  7167
KUIPER-00100            
1 65139U 25171H   25262.04567073  .00038175  00000+0  10690-2 0  9990
2 65139  51.8737 218.8829 0004106 273.8701  86.1816 15.36251403  7168
KUIPER-00102            
1 65140U 25171J   25262.24868590  .00043716  00000+0  12358-2 0  9992
2 65140  51.8737 217.9888 0003952 292.7881  67.2687 15.35896889  7193
KUIPER-00103            
1 65141U 25171K   25262.25002315 -.00552902  00000+0 -18145-1 0  9992
2 65141  51.8750 217.9513 0003590 270.6142 115.2818 15.33375122  4824
